CCSDS_OMM_VERS = 2.0
CREATION_DATE  = 
ORIGINATOR     = 

OBJECT_NAME    = IDEFIX & ARIANE 42P R/B
OBJECT_ID      = 2002-021B
CENTER_NAME    = EARTH
REF_FRAME      = TEME
TIME_SYSTEM    = UTC
MEAN_ELEMENT_THEORY = SGP/SGP4

EPOCH          = 2026-02-26T10:45:48.107808
MEAN_MOTION    = 14.31016791
ECCENTRICITY   = .00109737
INCLINATION    = 98.5858
RA_OF_ASC_NODE = 356.1900
ARG_OF_PERICENTER = 216.7715
MEAN_ANOMALY   = 143.2716

EPHEMERIS_TYPE = 0
CLASSIFICATION_TYPE = U
NORAD_CAT_ID   = 27422
ELEMENT_SET_NO = 999
REV_AT_EPOCH   = 24241
BSTAR          = .11412418E-3
MEAN_MOTION_DOT = .257E-5
MEAN_MOTION_DDOT = 0

CCSDS_OMM_VERS = 2.0
CREATION_DATE  = 
ORIGINATOR     = 

OBJECT_NAME    = AQUA
OBJECT_ID      = 2002-022A
CENTER_NAME    = EARTH
REF_FRAME      = TEME
TIME_SYSTEM    = UTC
MEAN_ELEMENT_THEORY = SGP/SGP4

EPOCH          = 2026-02-26T14:27:04.636800
MEAN_MOTION    = 14.61945101
ECCENTRICITY   = .00008399
INCLINATION    = 98.4153
RA_OF_ASC_NODE = 24.7670
ARG_OF_PERICENTER = 49.8280
MEAN_ANOMALY   = 38.3014

EPHEMERIS_TYPE = 0
CLASSIFICATION_TYPE = U
NORAD_CAT_ID   = 27424
ELEMENT_SET_NO = 999
REV_AT_EPOCH   = 26711
BSTAR          = .21832848E-3
MEAN_MOTION_DOT = .1044E-4
MEAN_MOTION_DDOT = 0

CCSDS_OMM_VERS = 2.0
CREATION_DATE  = 
ORIGINATOR     = 

OBJECT_NAME    = CZ-4B R/B
OBJECT_ID      = 2002-024C
CENTER_NAME    = EARTH
REF_FRAME      = TEME
TIME_SYSTEM    = UTC
MEAN_ELEMENT_THEORY = SGP/SGP4

EPOCH          = 2026-02-26T15:12:33.550560
MEAN_MOTION    = 14.14545457
ECCENTRICITY   = .00509559
INCLINATION    = 98.8865
RA_OF_ASC_NODE = 111.0948
ARG_OF_PERICENTER = 55.2640
MEAN_ANOMALY   = 107.1101

EPHEMERIS_TYPE = 0
CLASSIFICATION_TYPE = U
NORAD_CAT_ID   = 27432
ELEMENT_SET_NO = 999
REV_AT_EPOCH   = 22767
BSTAR          = .43251889E-4
MEAN_MOTION_DOT = .4E-6
MEAN_MOTION_DDOT = 0

CCSDS_OMM_VERS = 2.0
CREATION_DATE  = 
ORIGINATOR     = 

OBJECT_NAME    = MIDORI II (ADEOS-II)
OBJECT_ID      = 2002-056A
CENTER_NAME    = EARTH
REF_FRAME      = TEME
TIME_SYSTEM    = UTC
MEAN_ELEMENT_THEORY = SGP/SGP4

EPOCH          = 2026-02-26T11:06:34.310304
MEAN_MOTION    = 14.29275006
ECCENTRICITY   = .00019496
INCLINATION    = 98.7748
RA_OF_ASC_NODE = 15.8646
ARG_OF_PERICENTER = 58.8376
MEAN_ANOMALY   = 301.2997

EPHEMERIS_TYPE = 0
CLASSIFICATION_TYPE = U
NORAD_CAT_ID   = 27597
ELEMENT_SET_NO = 999
REV_AT_EPOCH   = 20869
BSTAR          = .12020734E-3
MEAN_MOTION_DOT = .26E-5
MEAN_MOTION_DDOT = 0

CCSDS_OMM_VERS = 2.0
CREATION_DATE  = 
ORIGINATOR     = 

OBJECT_NAME    = H-2A R/B
OBJECT_ID      = 2002-056E
CENTER_NAME    = EARTH
REF_FRAME      = TEME
TIME_SYSTEM    = UTC
MEAN_ELEMENT_THEORY = SGP/SGP4

EPOCH          = 2026-02-26T11:32:41.564832
MEAN_MOTION    = 14.33752036
ECCENTRICITY   = .00697943
INCLINATION    = 98.3180
RA_OF_ASC_NODE = 18.2748
ARG_OF_PERICENTER = 194.0803
MEAN_ANOMALY   = 275.7141

EPHEMERIS_TYPE = 0
CLASSIFICATION_TYPE = U
NORAD_CAT_ID   = 27601
ELEMENT_SET_NO = 999
REV_AT_EPOCH   = 21250
BSTAR          = .10823107E-3
MEAN_MOTION_DOT = .267E-5
MEAN_MOTION_DDOT = 0

CCSDS_OMM_VERS = 2.0
CREATION_DATE  = 
ORIGINATOR     = 

OBJECT_NAME    = CZ-4B R/B
OBJECT_ID      = 2003-049C
CENTER_NAME    = EARTH
REF_FRAME      = TEME
TIME_SYSTEM    = UTC
MEAN_ELEMENT_THEORY = SGP/SGP4

EPOCH          = 2026-02-26T12:26:09.505248
MEAN_MOTION    = 14.55007079
ECCENTRICITY   = .00469904
INCLINATION    = 98.6867
RA_OF_ASC_NODE = 51.9857
ARG_OF_PERICENTER = 265.7823
MEAN_ANOMALY   = 93.8002

EPHEMERIS_TYPE = 0
CLASSIFICATION_TYPE = U
NORAD_CAT_ID   = 28059
ELEMENT_SET_NO = 999
REV_AT_EPOCH   = 18497
BSTAR          = .10891685E-3
MEAN_MOTION_DOT = .424E-5
MEAN_MOTION_DDOT = 0

CCSDS_OMM_VERS = 2.0
CREATION_DATE  = 
ORIGINATOR     = 

OBJECT_NAME    = CZ-2C R/B
OBJECT_ID      = 2004-012C
CENTER_NAME    = EARTH
REF_FRAME      = TEME
TIME_SYSTEM    = UTC
MEAN_ELEMENT_THEORY = SGP/SGP4

EPOCH          = 2026-02-26T03:42:42.746688
MEAN_MOTION    = 15.63027474
ECCENTRICITY   = .00138491
INCLINATION    = 97.7267
RA_OF_ASC_NODE = 121.3663
ARG_OF_PERICENTER = 356.0259
MEAN_ANOMALY   = 4.0886

EPHEMERIS_TYPE = 0
CLASSIFICATION_TYPE = U
NORAD_CAT_ID   = 28222
ELEMENT_SET_NO = 999
REV_AT_EPOCH   = 20247
BSTAR          = .54442991E-3
MEAN_MOTION_DOT = .49731E-3
MEAN_MOTION_DDOT = 0

CCSDS_OMM_VERS = 2.0
CREATION_DATE  = 
ORIGINATOR     = 

OBJECT_NAME    = SL-16 R/B
OBJECT_ID      = 2004-021B
CENTER_NAME    = EARTH
REF_FRAME      = TEME
TIME_SYSTEM    = UTC
MEAN_ELEMENT_THEORY = SGP/SGP4

EPOCH          = 2026-02-26T13:36:54.091008
MEAN_MOTION    = 14.14599484
ECCENTRICITY   = .00034656
INCLINATION    = 70.9989
RA_OF_ASC_NODE = 255.8352
ARG_OF_PERICENTER = 34.2343
MEAN_ANOMALY   = 325.9002

EPHEMERIS_TYPE = 0
CLASSIFICATION_TYPE = U
NORAD_CAT_ID   = 28353
ELEMENT_SET_NO = 999
REV_AT_EPOCH   = 12126
BSTAR          = .46876143E-4
MEAN_MOTION_DOT = .42E-6
MEAN_MOTION_DDOT = 0

CCSDS_OMM_VERS = 2.0
CREATION_DATE  = 
ORIGINATOR     = 

OBJECT_NAME    = CZ-4B R/B
OBJECT_ID      = 2004-035C
CENTER_NAME    = EARTH
REF_FRAME      = TEME
TIME_SYSTEM    = UTC
MEAN_ELEMENT_THEORY = SGP/SGP4

EPOCH          = 2026-02-26T01:31:16.460544
MEAN_MOTION    = 15.28820428
ECCENTRICITY   = .00324753
INCLINATION    = 97.3526
RA_OF_ASC_NODE = 91.4468
ARG_OF_PERICENTER = 13.3200
MEAN_ANOMALY   = 346.8890

EPHEMERIS_TYPE = 0
CLASSIFICATION_TYPE = U
NORAD_CAT_ID   = 28415
ELEMENT_SET_NO = 999
REV_AT_EPOCH   = 17813
BSTAR          = .27813603E-3
MEAN_MOTION_DOT = .7837E-4
MEAN_MOTION_DDOT = 0

CCSDS_OMM_VERS = 2.0
CREATION_DATE  = 
ORIGINATOR     = 

OBJECT_NAME    = CZ-2C R/B
OBJECT_ID      = 2004-046B
CENTER_NAME    = EARTH
REF_FRAME      = TEME
TIME_SYSTEM    = UTC
MEAN_ELEMENT_THEORY = SGP/SGP4

EPOCH          = 2026-02-26T08:04:45.908544
MEAN_MOTION    = 14.26987782
ECCENTRICITY   = .01391893
INCLINATION    = 98.1989
RA_OF_ASC_NODE = 333.0265
ARG_OF_PERICENTER = 187.9645
MEAN_ANOMALY   = 171.9327

EPHEMERIS_TYPE = 0
CLASSIFICATION_TYPE = U
NORAD_CAT_ID   = 28480
ELEMENT_SET_NO = 999
REV_AT_EPOCH   = 10688
BSTAR          = .56933597E-4
MEAN_MOTION_DOT = .112E-5
MEAN_MOTION_DDOT = 0

CCSDS_OMM_VERS = 2.0
CREATION_DATE  = 
ORIGINATOR     = 

OBJECT_NAME    = ARIANE 5 R/B
OBJECT_ID      = 2004-049H
CENTER_NAME    = EARTH
REF_FRAME      = TEME
TIME_SYSTEM    = UTC
MEAN_ELEMENT_THEORY = SGP/SGP4

EPOCH          = 2026-02-26T10:47:12.861024
MEAN_MOTION    = 14.85241278
ECCENTRICITY   = .00847391
INCLINATION    = 98.2609
RA_OF_ASC_NODE = 225.4873
ARG_OF_PERICENTER = 28.3016
MEAN_ANOMALY   = 332.2763

EPHEMERIS_TYPE = 0
CLASSIFICATION_TYPE = U
NORAD_CAT_ID   = 28499
ELEMENT_SET_NO = 999
REV_AT_EPOCH   = 14412
BSTAR          = .94535808E-4
MEAN_MOTION_DOT = .8E-5
MEAN_MOTION_DDOT = 0

CCSDS_OMM_VERS = 2.0
CREATION_DATE  = 
ORIGINATOR     = 

OBJECT_NAME    = CZ-2D R/B
OBJECT_ID      = 2005-024B
CENTER_NAME    = EARTH
REF_FRAME      = TEME
TIME_SYSTEM    = UTC
MEAN_ELEMENT_THEORY = SGP/SGP4

EPOCH          = 2026-02-26T11:32:29.830848
MEAN_MOTION    = 15.59027530
ECCENTRICITY   = .00072993
INCLINATION    = 97.3620
RA_OF_ASC_NODE = 72.2263
ARG_OF_PERICENTER = 74.0271
MEAN_ANOMALY   = 286.1789

EPHEMERIS_TYPE = 0
CLASSIFICATION_TYPE = U
NORAD_CAT_ID   = 28738
ELEMENT_SET_NO = 999
REV_AT_EPOCH   = 13803
BSTAR          = .53272139E-3
MEAN_MOTION_DOT = .41558E-3
MEAN_MOTION_DDOT = 0

